{
  "type": "FeatureCollection",
  "features": [
    {
      "type": "Feature",
      "properties": {
        "norad_id": 66914,
        "name": "2025-284B",
        "group": "last-30-days",
        "lat": 43.35408943938152,
        "lon": -58.68952211337145,
        "alt_km": 507.76314388931314,
        "timestamp": "2025-12-12T03:50:51.179112+00:00",
        "meta_object_name": "2025-284B",
        "meta_object_id": "2025-284B",
        "meta_epoch": "2025-12-11T16:11:01.058784",
        "meta_mean_motion": 15.18886497,
        "meta_eccentricity": 0.00082886,
        "meta_inclination": 80.4056,
        "meta_ra_of_asc_node": 131.1161,
        "meta_arg_of_pericenter": 250.3357,
        "meta_mean_anomaly": 109.6976,
        "meta_ephemeris_type": 0,
        "meta_classification_type": "U",
        "meta_norad_cat_id": 66914,
        "meta_element_set_no": 999,
        "meta_rev_at_epoch": 96,
        "meta_bstar": 0.00069186792,
        "meta_mean_motion_dot": 0.00014474,
        "meta_mean_motion_ddot": 0,
        "tle_line1": "1 66914U 25284B   25345.67431781  .00014474  00000+0  69187-3 0  9996",
        "tle_line2": "2 66914  80.4056 131.1161 0008288 250.3357 109.6976 15.18886497   966"
      },
      "geometry": {
        "type": "Point",
        "coordinates": [
          -58.68952211337145,
          43.35408943938152
        ]
      }
    },
    {
      "type": "Feature",
      "properties": {
        "norad_id": 66915,
        "name": "HULIANWANG DIGUI-105",
        "group": "last-30-days",
        "lat": 31.359438293012378,
        "lon": -91.1456918106439,
        "alt_km": 877.328912744757,
        "timestamp": "2025-12-12T03:50:51.179124+00:00",
        "meta_object_name": "HULIANWANG DIGUI-105",
        "meta_object_id": "2025-285A",
        "meta_epoch": "2025-12-11T16:57:14.807232",
        "meta_mean_motion": 14.04909251,
        "meta_eccentricity": 0.0007691,
        "meta_inclination": 50.0025,
        "meta_ra_of_asc_node": 121.4807,
        "meta_arg_of_pericenter": 282.4913,
        "meta_mean_anomaly": 77.5131,
        "meta_ephemeris_type": 0,
        "meta_classification_type": "U",
        "meta_norad_cat_id": 66915,
        "meta_element_set_no": 999,
        "meta_rev_at_epoch": 76,
        "meta_bstar": 0.00020275,
        "meta_mean_motion_dot": 1.76e-06,
        "meta_mean_motion_ddot": 0,
        "tle_line1": "1 66915U 25285A   25345.70642138  .00000176  00000+0  20275-3 0  9991",
        "tle_line2": "2 66915  50.0025 121.4807 0007691 282.4913  77.5131 14.04909251   768"
      },
      "geometry": {
        "type": "Point",
        "coordinates": [
          -91.1456918106439,
          31.359438293012378
        ]
      }
    },
    {
      "type": "Feature",
      "properties": {
        "norad_id": 66916,
        "name": "HULIANWANG DIGUI-106",
        "group": "last-30-days",
        "lat": 29.91903542915002,
        "lon": -89.25916204940712,
        "alt_km": 874.4405283899678,
        "timestamp": "2025-12-12T03:50:51.179134+00:00",
        "meta_object_name": "HULIANWANG DIGUI-106",
        "meta_object_id": "2025-285B",
        "meta_epoch": "2025-12-11T15:14:31.596288",
        "meta_mean_motion": 14.05514241,
        "meta_eccentricity": 0.00069608,
        "meta_inclination": 50.0047,
        "meta_ra_of_asc_node": 121.7746,
        "meta_arg_of_pericenter": 273.6579,
        "meta_mean_anomaly": 86.3531,
        "meta_ephemeris_type": 0,
        "meta_classification_type": "U",
        "meta_norad_cat_id": 66916,
        "meta_element_set_no": 999,
        "meta_rev_at_epoch": 75,
        "meta_bstar": 0.00021176158,
        "meta_mean_motion_dot": 1.94e-06,
        "meta_mean_motion_ddot": 0,
        "tle_line1": "1 66916U 25285B   25345.63508792  .00000194  00000+0  21176-3 0  9992",
        "tle_line2": "2 66916  50.0047 121.7746 0006960 273.6579  86.3531 14.05514241   759"
      },
      "geometry": {
        "type": "Point",
        "coordinates": [
          -89.25916204940712,
          29.91903542915002
        ]
      }
    },
    {
      "type": "Feature",
      "properties": {
        "norad_id": 66917,
        "name": "HULIANWANG DIGUI-107",
        "group": "last-30-days",
        "lat": 28.934082916188498,
        "lon": -88.03172354665858,
        "alt_km": 875.0812997640796,
        "timestamp": "2025-12-12T03:50:51.179144+00:00",
        "meta_object_name": "HULIANWANG DIGUI-107",
        "meta_object_id": "2025-285C",
        "meta_epoch": "2025-12-11T15:14:08.831616",
        "meta_mean_motion": 14.05580171,
        "meta_eccentricity": 0.00075617,
        "meta_inclination": 50.0012,
        "meta_ra_of_asc_node": 121.7696,
        "meta_arg_of_pericenter": 281.4609,
        "meta_mean_anomaly": 78.5447,
        "meta_ephemeris_type": 0,
        "meta_classification_type": "U",
        "meta_norad_cat_id": 66917,
        "meta_element_set_no": 999,
        "meta_rev_at_epoch": 75,
        "meta_bstar": 1.1642511e-05,
        "meta_mean_motion_dot": -1.33e-06,
        "meta_mean_motion_ddot": 0,
        "tle_line1": "1 66917U 25285C   25345.63482444 -.00000133  00000+0  11643-4 0  9991",
        "tle_line2": "2 66917  50.0012 121.7696 0007561 281.4609  78.5447 14.05580171   759"
      },
      "geometry": {
        "type": "Point",
        "coordinates": [
          -88.03172354665858,
          28.934082916188498
        ]
      }
    },
    {
      "type": "Feature",
      "properties": {
        "norad_id": 66918,
        "name": "HULIANWANG DIGUI-108",
        "group": "last-30-days",
        "lat": 27.180992348996558,
        "lon": -85.91798064220475,
        "alt_km": 873.8959716793006,
        "timestamp": "2025-12-12T03:50:51.179154+00:00",
        "meta_object_name": "HULIANWANG DIGUI-108",
        "meta_object_id": "2025-285D",
        "meta_epoch": "2025-12-11T15:13:29.402112",
        "meta_mean_motion": 14.05704786,
        "meta_eccentricity": 0.00064654,
        "meta_inclination": 50.0034,
        "meta_ra_of_asc_node": 121.7693,
        "meta_arg_of_pericenter": 276.5269,
        "meta_mean_anomaly": 83.49,
        "meta_ephemeris_type": 0,
        "meta_classification_type": "U",
        "meta_norad_cat_id": 66918,
        "meta_element_set_no": 999,
        "meta_rev_at_epoch": 75,
        "meta_bstar": 0.00020895778,
        "meta_mean_motion_dot": 1.91e-06,
        "meta_mean_motion_ddot": 0,
        "tle_line1": "1 66918U 25285D   25345.63436808  .00000191  00000+0  20896-3 0  9997",
        "tle_line2": "2 66918  50.0034 121.7693 0006465 276.5269  83.4900 14.05704786   759"
      },
      "geometry": {
        "type": "Point",
        "coordinates": [
          -85.91798064220475,
          27.180992348996558
        ]
      }
    },
    {
      "type": "Feature",
      "properties": {
        "norad_id": 66919,
        "name": "HULIANWANG DIGUI-109",
        "group": "last-30-days",
        "lat": 26.957711354542973,
        "lon": -85.65134467431248,
        "alt_km": 875.3273240257122,
        "timestamp": "2025-12-12T03:50:51.179164+00:00",
        "meta_object_name": "HULIANWANG DIGUI-109",
        "meta_object_id": "2025-285E",
        "meta_epoch": "2025-12-11T15:13:24.040128",
        "meta_mean_motion": 14.0571584,
        "meta_eccentricity": 0.00078923,
        "meta_inclination": 50.0058,
        "meta_ra_of_asc_node": 121.7721,
        "meta_arg_of_pericenter": 287.899,
        "meta_mean_anomaly": 72.1054,
        "meta_ephemeris_type": 0,
        "meta_classification_type": "U",
        "meta_norad_cat_id": 66919,
        "meta_element_set_no": 999,
        "meta_rev_at_epoch": 75,
        "meta_bstar": 9.81654e-07,
        "meta_mean_motion_dot": -1.51e-06,
        "meta_mean_motion_ddot": 0,
        "tle_line1": "1 66919U 25285E   25345.63430602 -.00000151  00000+0  98165-6 0  9998",
        "tle_line2": "2 66919  50.0058 121.7721 0007892 287.8990  72.1054 14.05715840   757"
      },
      "geometry": {
        "type": "Point",
        "coordinates": [
          -85.65134467431248,
          26.957711354542973
        ]
      }
    },
    {
      "type": "Feature",
      "properties": {
        "norad_id": 66920,
        "name": "HULIANWANG DIGUI-110",
        "group": "last-30-days",
        "lat": 25.029319683212073,
        "lon": -83.45315024675061,
        "alt_km": 873.665920769301,
        "timestamp": "2025-12-12T03:50:51.179174+00:00",
        "meta_object_name": "HULIANWANG DIGUI-110",
        "meta_object_id": "2025-285F",
        "meta_epoch": "2025-12-11T15:12:41.831136",
        "meta_mean_motion": 14.05850638,
        "meta_eccentricity": 0.00058217,
        "meta_inclination": 50.0091,
        "meta_ra_of_asc_node": 121.773,
        "meta_arg_of_pericenter": 284.8167,
        "meta_mean_anomaly": 75.2093,
        "meta_ephemeris_type": 0,
        "meta_classification_type": "U",
        "meta_norad_cat_id": 66920,
        "meta_element_set_no": 999,
        "meta_rev_at_epoch": 75,
        "meta_bstar": 0.0001975267,
        "meta_mean_motion_dot": 1.73e-06,
        "meta_mean_motion_ddot": 0,
        "tle_line1": "1 66920U 25285F   25345.63381749  .00000173  00000+0  19753-3 0  9993",
        "tle_line2": "2 66920  50.0091 121.7730 0005821 284.8167  75.2093 14.05850638   751"
      },
      "geometry": {
        "type": "Point",
        "coordinates": [
          -83.45315024675061,
          25.029319683212073
        ]
      }
    }
  ]
}